{
  "type": "FeatureCollection",
  "features": [
    {
      "type": "Feature",
      "properties": {
        "norad_id": 66815,
        "name": "STARLINK-35985",
        "group": "last-30-days",
        "lat": -42.83735398998998,
        "lon": 67.2229255133508,
        "alt_km": 417.41285427514595,
        "timestamp": "2025-12-27T15:27:09.830823+00:00",
        "meta_object_name": "STARLINK-35985",
        "meta_object_id": "2025-278AA",
        "meta_epoch": "2025-12-27T00:00:02.999808",
        "meta_mean_motion": 15.50566195,
        "meta_eccentricity": 0.00016144,
        "meta_inclination": 43.0001,
        "meta_ra_of_asc_node": 166.7033,
        "meta_arg_of_pericenter": 275.4195,
        "meta_mean_anomaly": 352.2235,
        "meta_ephemeris_type": 0,
        "meta_classification_type": "U",
        "meta_norad_cat_id": 66815,
        "meta_element_set_no": 999,
        "meta_rev_at_epoch": 533,
        "meta_bstar": -0.0002007945,
        "meta_mean_motion_dot": -0.00012098,
        "meta_mean_motion_ddot": 0,
        "tle_line1": "1 66815U 25278AA  25361.00003472 -.00012098  00000+0 -20079-3 0  9995",
        "tle_line2": "2 66815  43.0001 166.7033 0001614 275.4195 352.2235 15.50566195  5333"
      },
      "geometry": {
        "type": "Point",
        "coordinates": [
          67.2229255133508,
          -42.83735398998998
        ]
      }
    },
    {
      "type": "Feature",
      "properties": {
        "norad_id": 66816,
        "name": "STARLINK-36098",
        "group": "last-30-days",
        "lat": -41.850421703660565,
        "lon": 56.94271920401129,
        "alt_km": 417.54966008814336,
        "timestamp": "2025-12-27T15:27:09.830834+00:00",
        "meta_object_name": "STARLINK-36098",
        "meta_object_id": "2025-278AB",
        "meta_epoch": "2025-12-27T00:00:02.999808",
        "meta_mean_motion": 15.50588317,
        "meta_eccentricity": 0.00015046,
        "meta_inclination": 43.0001,
        "meta_ra_of_asc_node": 166.7239,
        "meta_arg_of_pericenter": 268.7963,
        "meta_mean_anomaly": 351.1783,
        "meta_ephemeris_type": 0,
        "meta_classification_type": "U",
        "meta_norad_cat_id": 66816,
        "meta_element_set_no": 999,
        "meta_rev_at_epoch": 509,
        "meta_bstar": -0.00097010292,
        "meta_mean_motion_dot": -0.0005686,
        "meta_mean_motion_ddot": 0,
        "tle_line1": "1 66816U 25278AB  25361.00003472 -.00056860  00000+0 -97010-3 0  9990",
        "tle_line2": "2 66816  43.0001 166.7239 0001504 268.7963 351.1783 15.50588317  5097"
      },
      "geometry": {
        "type": "Point",
        "coordinates": [
          56.94271920401129,
          -41.850421703660565
        ]
      }
    },
    {
      "type": "Feature",
      "properties": {
        "norad_id": 66817,
        "name": "STARLINK-35995",
        "group": "last-30-days",
        "lat": -42.45969774442514,
        "lon": 62.04636617698736,
        "alt_km": 417.4181581360408,
        "timestamp": "2025-12-27T15:27:09.830844+00:00",
        "meta_object_name": "STARLINK-35995",
        "meta_object_id": "2025-278AC",
        "meta_epoch": "2025-12-27T00:00:02.999808",
        "meta_mean_motion": 15.50570945,
        "meta_eccentricity": 0.00016404,
        "meta_inclination": 43.0001,
        "meta_ra_of_asc_node": 166.7136,
        "meta_arg_of_pericenter": 274.3713,
        "meta_mean_anomaly": 349.4376,
        "meta_ephemeris_type": 0,
        "meta_classification_type": "U",
        "meta_norad_cat_id": 66817,
        "meta_element_set_no": 999,
        "meta_rev_at_epoch": 525,
        "meta_bstar": -0.00037422385,
        "meta_mean_motion_dot": -0.00022227,
        "meta_mean_motion_ddot": 0,
        "tle_line1": "1 66817U 25278AC  25361.00003472 -.00022227  00000+0 -37422-3 0  9992",
        "tle_line2": "2 66817  43.0001 166.7136 0001640 274.3713 349.4376 15.50570945  5255"
      },
      "geometry": {
        "type": "Point",
        "coordinates": [
          62.04636617698736,
          -42.45969774442514
        ]
      }
    },
    {
      "type": "Feature",
      "properties": {
        "norad_id": 66818,
        "name": "STARLINK-35994",
        "group": "last-30-days",
        "lat": -16.964643230340208,
        "lon": 2.1923446718721595,
        "alt_km": 445.5926143294146,
        "timestamp": "2025-12-27T15:27:09.830858+00:00",
        "meta_object_name": "STARLINK-35994",
        "meta_object_id": "2025-278AD",
        "meta_epoch": "2025-12-27T06:00:02.000160",
        "meta_mean_motion": 15.40616284,
        "meta_eccentricity": 0.00022639,
        "meta_inclination": 43.0006,
        "meta_ra_of_asc_node": 165.3537,
        "meta_arg_of_pericenter": 282.8524,
        "meta_mean_anomaly": 255.4837,
        "meta_ephemeris_type": 0,
        "meta_classification_type": "U",
        "meta_norad_cat_id": 66818,
        "meta_element_set_no": 999,
        "meta_rev_at_epoch": 529,
        "meta_bstar": 0.0011961396,
        "meta_mean_motion_dot": 0.00049852,
        "meta_mean_motion_ddot": 0,
        "tle_line1": "1 66818U 25278AD  25361.25002315  .00049852  00000+0  11961-2 0  9995",
        "tle_line2": "2 66818  43.0006 165.3537 0002263 282.8524 255.4837 15.40616284  5295"
      },
      "geometry": {
        "type": "Point",
        "coordinates": [
          2.1923446718721595,
          -16.964643230340208
        ]
      }
    },
    {
      "type": "Feature",
      "properties": {
        "norad_id": 66819,
        "name": "STARLINK-35989",
        "group": "last-30-days",
        "lat": -42.677832890724105,
        "lon": 64.62727236644359,
        "alt_km": 417.5358671104268,
        "timestamp": "2025-12-27T15:27:09.830869+00:00",
        "meta_object_name": "STARLINK-35989",
        "meta_object_id": "2025-278AE",
        "meta_epoch": "2025-12-27T00:00:02.999808",
        "meta_mean_motion": 15.50571322,
        "meta_eccentricity": 0.00014601,
        "meta_inclination": 43.0001,
        "meta_ra_of_asc_node": 166.7083,
        "meta_arg_of_pericenter": 275.0069,
        "meta_mean_anomaly": 350.7199,
        "meta_ephemeris_type": 0,
        "meta_classification_type": "U",
        "meta_norad_cat_id": 66819,
        "meta_element_set_no": 999,
        "meta_rev_at_epoch": 525,
        "meta_bstar": -0.00037010918,
        "meta_mean_motion_dot": -0.00021987,
        "meta_mean_motion_ddot": 0,
        "tle_line1": "1 66819U 25278AE  25361.00003472 -.00021987  00000+0 -37011-3 0  9990",
        "tle_line2": "2 66819  43.0001 166.7083 0001460 275.0069 350.7199 15.50571322  5258"
      },
      "geometry": {
        "type": "Point",
        "coordinates": [
          64.62727236644359,
          -42.677832890724105
        ]
      }
    },
    {
      "type": "Feature",
      "properties": {
        "norad_id": 66820,
        "name": "KOMPSAT-7",
        "group": "last-30-days",
        "lat": 19.42251703967793,
        "lon": 129.969328003324,
        "alt_km": 559.7253940795435,
        "timestamp": "2025-12-27T15:27:09.830879+00:00",
        "meta_object_name": "KOMPSAT-7",
        "meta_object_id": "2025-279A",
        "meta_epoch": "2025-12-27T06:44:23.364672",
        "meta_mean_motion": 15.00856737,
        "meta_eccentricity": 0.00099979,
        "meta_inclination": 97.6456,
        "meta_ra_of_asc_node": 306.8974,
        "meta_arg_of_pericenter": 208.4889,
        "meta_mean_anomaly": 151.579,
        "meta_ephemeris_type": 0,
        "meta_classification_type": "U",
        "meta_norad_cat_id": 66820,
        "meta_element_set_no": 999,
        "meta_rev_at_epoch": 383,
        "meta_bstar": 0.00026762105,
        "meta_mean_motion_dot": 3.347e-05,
        "meta_mean_motion_ddot": 0,
        "tle_line1": "1 66820U 25279A   25361.28082598  .00003347  00000+0  26762-3 0  9998",
        "tle_line2": "2 66820  97.6456 306.8974 0009997 208.4889 151.5790 15.00856737  3835"
      },
      "geometry": {
        "type": "Point",
        "coordinates": [
          129.969328003324,
          19.42251703967793
        ]
      }
    },
    {
      "type": "Feature",
      "properties": {
        "norad_id": 66821,
        "name": "STARLINK-35966",
        "group": "last-30-days",
        "lat": 51.834200316624226,
        "lon": -50.0136316868714,
        "alt_km": 405.36448127729545,
        "timestamp": "2025-12-27T15:27:09.830891+00:00",
        "meta_object_name": "STARLINK-35966",
        "meta_object_id": "2025-280A",
        "meta_epoch": "2025-12-27T04:06:01.931616",
        "meta_mean_motion": 15.52566864,
        "meta_eccentricity": 0.00031805,
        "meta_inclination": 70.0006,
        "meta_ra_of_asc_node": 158.8889,
        "meta_arg_of_pericenter": 275.3001,
        "meta_mean_anomaly": 84.7823,
        "meta_ephemeris_type": 0,
        "meta_classification_type": "U",
        "meta_norad_cat_id": 66821,
        "meta_element_set_no": 999,
        "meta_rev_at_epoch": 517,
        "meta_bstar": 0.0022206461,
        "meta_mean_motion_dot": 0.00139102,
        "meta_mean_motion_ddot": 0,
        "tle_line1": "1 66821U 25280A   25361.17085569  .00139102  00000+0  22206-2 0  9997",
        "tle_line2": "2 66821  70.0006 158.8889 0003180 275.3001  84.7823 15.52566864  5178"
      },
      "geometry": {
        "type": "Point",
        "coordinates": [
          -50.0136316868714,
          51.834200316624226
        ]
      }
    }
  ]
}